{
"type": "FeatureCollection",
"name": "AISD_Schools",
"crs": { "type": "name", "properties": { "name": "urn:ogc:def:crs:OGC:1.3:CRS84" } },
"features": [
{ "type": "Feature", "properties": { "OBJECTID": 29514, "CLASS": "ELEM", "NAME": "LANGFORD", "ISD": "AUSTIN ISD", "ADDRESS": "2206 BLUE MEADOW DRIVE", "CITY": "AUSTIN", "STATE": "TX", "ZIP": "78744", "CAMPUS_ID": "168" }, "geometry": { "type": "Point", "coordinates": [ -97.763494373999947, 30.182084430000035 ] } },
{ "type": "Feature", "properties": { "OBJECTID": 29515, "CLASS": "ELEM", "NAME": "LEE", "ISD": "AUSTIN ISD", "ADDRESS": "3308 HAMPTON ROAD", "CITY": "AUSTIN", "STATE": "TX", "ZIP": "78705", "CAMPUS_ID": "121" }, "geometry": { "type": "Point", "coordinates": [ -97.727397747999987, 30.293385324000045 ] } },
{ "type": "Feature", "properties": { "OBJECTID": 29516, "CLASS": "ELEM", "NAME": "LINDER", "ISD": "AUSTIN ISD", "ADDRESS": "2800 METCALFE ROAD", "CITY": "AUSTIN", "STATE": "TX", "ZIP": "78741", "CAMPUS_ID": "160" }, "geometry": { "type": "Point", "coordinates": [ -97.737682118999942, 30.224447020000071 ] } },
{ "type": "Feature", "properties": { "OBJECTID": 29517, "CLASS": "ELEM", "NAME": "MAPLEWOOD", "ISD": "AUSTIN ISD", "ADDRESS": "3808 MAPLEWOOD AVE.", "CITY": "AUSTIN", "STATE": "TX", "ZIP": "78722", "CAMPUS_ID": "122" }, "geometry": { "type": "Point", "coordinates": [ -97.71439634799998, 30.293175978000079 ] } },
{ "type": "Feature", "properties": { "OBJECTID": 29518, "CLASS": "ELEM", "NAME": "MATHEWS", "ISD": "AUSTIN ISD", "ADDRESS": "906 WEST LYNN STREET", "CITY": "AUSTIN", "STATE": "TX", "ZIP": "78703", "CAMPUS_ID": "123" }, "geometry": { "type": "Point", "coordinates": [ -97.760907374999988, 30.278335810000048 ] } },
{ "type": "Feature", "properties": { "OBJECTID": 29519, "CLASS": "ELEM", "NAME": "MENCHACA", "ISD": "AUSTIN ISD", "ADDRESS": "12120 MENCHACA ROAD", "CITY": "AUSTIN", "STATE": "TX", "ZIP": "78748", "CAMPUS_ID": "147" }, "geometry": { "type": "Point", "coordinates": [ -97.833658258999961, 30.141541306000079 ] } },
{ "type": "Feature", "properties": { "OBJECTID": 29520, "CLASS": "DISTRICT", "NAME": "SITE 905", "ISD": "AUSTIN ISD", "ADDRESS": "84 ROBERT T. MARTINEZ JR. STREET", "CITY": "AUSTIN", "STATE": "TX", "ZIP": "78702", "CAMPUS_ID": "905" }, "geometry": { "type": "Point", "coordinates": [ -97.721906885999957, 30.254594719000071 ] } },
{ "type": "Feature", "properties": { "OBJECTID": 29521, "CLASS": "ELEM", "NAME": "NORMAN-SIMS", "ISD": "AUSTIN ISD", "ADDRESS": "4001 TANNEHILL LANE", "CITY": "AUSTIN", "STATE": "TX", "ZIP": "78721", "CAMPUS_ID": "150" }, "geometry": { "type": "Point", "coordinates": [ -97.673929362999957, 30.27836370700004 ] } },
{ "type": "Feature", "properties": { "OBJECTID": 29522, "CLASS": "ELEM", "NAME": "OAK SPRINGS", "ISD": "AUSTIN ISD", "ADDRESS": "3601 WEBBERVILLE ROAD", "CITY": "AUSTIN", "STATE": "TX", "ZIP": "78702", "CAMPUS_ID": "125" }, "geometry": { "type": "Point", "coordinates": [ -97.704594526999983, 30.271792072000043 ] } },
{ "type": "Feature", "properties": { "OBJECTID": 29523, "CLASS": "ELEM", "NAME": "ODOM", "ISD": "AUSTIN ISD", "ADDRESS": "1010 TURTLE CREEK BLVD.", "CITY": "AUSTIN", "STATE": "TX", "ZIP": "78745", "CAMPUS_ID": "156" }, "geometry": { "type": "Point", "coordinates": [ -97.78932538, 30.20589298800007 ] } },
{ "type": "Feature", "properties": { "OBJECTID": 1, "CLASS": "DISTRICT", "NAME": "SITE 907", "ISD": "AUSTIN ISD", "ADDRESS": "1203 SPRINGDALE ROAD", "CITY": "AUSTIN", "STATE": "TX", "ZIP": "78721", "CAMPUS_ID": "907" }, "geometry": { "type": "Point", "coordinates": [ -97.686101315999963, 30.279456277000065 ] } },
{ "type": "Feature", "properties": { "OBJECTID": 29525, "CLASS": "ELEM", "NAME": "ST ELMO", "ISD": "AUSTIN ISD", "ADDRESS": "600 W. ST. ELMO ROAD", "CITY": "AUSTIN", "STATE": "TX", "ZIP": "78745", "CAMPUS_ID": "136" }, "geometry": { "type": "Point", "coordinates": [ -97.773568506999951, 30.221838299000073 ] } },
{ "type": "Feature", "properties": { "OBJECTID": 29526, "CLASS": "ELEM", "NAME": "SUMMITT", "ISD": "AUSTIN ISD", "ADDRESS": "12207 BRIGADOON LANE", "CITY": "AUSTIN", "STATE": "TX", "ZIP": "78727", "CAMPUS_ID": "138" }, "geometry": { "type": "Point", "coordinates": [ -97.719133676999945, 30.418727024000081 ] } },
{ "type": "Feature", "properties": { "OBJECTID": 29527, "CLASS": "ELEM", "NAME": "SUNSET VALLEY", "ISD": "AUSTIN ISD", "ADDRESS": "3000 JONES ROAD", "CITY": "SUNSET VALLEY", "STATE": "TX", "ZIP": "78745", "CAMPUS_ID": "158" }, "geometry": { "type": "Point", "coordinates": [ -97.806947211999955, 30.227845459000036 ] } },
{ "type": "Feature", "properties": { "OBJECTID": 29528, "CLASS": "ELEM", "NAME": "TRAVIS HEIGHTS", "ISD": "AUSTIN ISD", "ADDRESS": "2010 ALAMEDA DRIVE", "CITY": "AUSTIN", "STATE": "TX", "ZIP": "78704", "CAMPUS_ID": "140" }, "geometry": { "type": "Point", "coordinates": [ -97.745897720999949, 30.241443206000042 ] } },
{ "type": "Feature", "properties": { "OBJECTID": 29529, "CLASS": "ELEM", "NAME": "WALNUT CREEK", "ISD": "AUSTIN ISD", "ADDRESS": "401 W. BRAKER LANE", "CITY": "AUSTIN", "STATE": "TX", "ZIP": "78753", "CAMPUS_ID": "141" }, "geometry": { "type": "Point", "coordinates": [ -97.683828913999946, 30.379743356000066 ] } },
{ "type": "Feature", "properties": { "OBJECTID": 29530, "CLASS": "ELEM", "NAME": "WIDEN", "ISD": "AUSTIN ISD", "ADDRESS": "5605 NUCKOLS CROSSING", "CITY": "AUSTIN", "STATE": "TX", "ZIP": "78744", "CAMPUS_ID": "175" }, "geometry": { "type": "Point", "coordinates": [ -97.739703933999976, 30.188458700000069 ] } },
{ "type": "Feature", "properties": { "OBJECTID": 29531, "CLASS": "ELEM", "NAME": "WILLIAMS", "ISD": "AUSTIN ISD", "ADDRESS": "500 MAIRO STREET", "CITY": "AUSTIN", "STATE": "TX", "ZIP": "78748", "CAMPUS_ID": "166" }, "geometry": { "type": "Point", "coordinates": [ -97.791137237999976, 30.181024778000051 ] } },
{ "type": "Feature", "properties": { "OBJECTID": 29532, "CLASS": "ELEM", "NAME": "WINN", "ISD": "AUSTIN ISD", "ADDRESS": "3500 SUSQUEHANNA LANE", "CITY": "AUSTIN", "STATE": "TX", "ZIP": "78723", "CAMPUS_ID": "157" }, "geometry": { "type": "Point", "coordinates": [ -97.665268662999949, 30.313875539000037 ] } },
{ "type": "Feature", "properties": { "OBJECTID": 29533, "CLASS": "ELEM", "NAME": "WOOLDRIDGE", "ISD": "AUSTIN ISD", "ADDRESS": "1412 NORSEMAN TERRACE", "CITY": "AUSTIN", "STATE": "TX", "ZIP": "78758", "CAMPUS_ID": "152" }, "geometry": { "type": "Point", "coordinates": [ -97.709712635999949, 30.364958535000028 ] } },
{ "type": "Feature", "properties": { "OBJECTID": 29534, "CLASS": "ELEM", "NAME": "ANDREWS", "ISD": "AUSTIN ISD", "ADDRESS": "6801 NORTHEAST DRIVE", "CITY": "AUSTIN", "STATE": "TX", "ZIP": "78723", "CAMPUS_ID": "102" }, "geometry": { "type": "Point", "coordinates": [ -97.679783900999951, 30.317710412000054 ] } },
{ "type": "Feature", "properties": { "OBJECTID": 29535, "CLASS": "ELEM", "NAME": "BARRINGTON", "ISD": "AUSTIN ISD", "ADDRESS": "400 COOPER DRIVE", "CITY": "AUSTIN", "STATE": "TX", "ZIP": "78752", "CAMPUS_ID": "149" }, "geometry": { "type": "Point", "coordinates": [ -97.695922448999966, 30.360495785000072 ] } },
{ "type": "Feature", "properties": { "OBJECTID": 29536, "CLASS": "ELEM", "NAME": "BARTON HILLS", "ISD": "AUSTIN ISD", "ADDRESS": "2108 BARTON HILLS DRIVE", "CITY": "AUSTIN", "STATE": "TX", "ZIP": "78704", "CAMPUS_ID": "103" }, "geometry": { "type": "Point", "coordinates": [ -97.783346566999981, 30.254405554000073 ] } },
{ "type": "Feature", "properties": { "OBJECTID": 29537, "CLASS": "ELEM", "NAME": "BECKER", "ISD": "AUSTIN ISD", "ADDRESS": "906 W MILTON STREET", "CITY": "AUSTIN", "STATE": "TX", "ZIP": "78704", "CAMPUS_ID": "104" }, "geometry": { "type": "Point", "coordinates": [ -97.759313653999982, 30.250421700000061 ] } },
{ "type": "Feature", "properties": { "OBJECTID": 29538, "CLASS": "ELEM", "NAME": "BLACKSHEAR", "ISD": "AUSTIN ISD", "ADDRESS": "1712 E. 11TH STREET", "CITY": "AUSTIN", "STATE": "TX", "ZIP": "78702", "CAMPUS_ID": "105" }, "geometry": { "type": "Point", "coordinates": [ -97.721934647999944, 30.266990049000071 ] } },
{ "type": "Feature", "properties": { "OBJECTID": 29539, "CLASS": "ELEM", "NAME": "BLANTON", "ISD": "AUSTIN ISD", "ADDRESS": "5408 WESTMINSTER DRIVE", "CITY": "AUSTIN", "STATE": "TX", "ZIP": "78723", "CAMPUS_ID": "106" }, "geometry": { "type": "Point", "coordinates": [ -97.690188995999961, 30.306884763000028 ] } },
{ "type": "Feature", "properties": { "OBJECTID": 29540, "CLASS": "ELEM", "NAME": "BOONE", "ISD": "AUSTIN ISD", "ADDRESS": "8101 CROFTWOOD DRIVE", "CITY": "AUSTIN", "STATE": "TX", "ZIP": "78749", "CAMPUS_ID": "170" }, "geometry": { "type": "Point", "coordinates": [ -97.840694937999956, 30.204007670000067 ] } },
{ "type": "Feature", "properties": { "OBJECTID": 29541, "CLASS": "ELEM", "NAME": "BRENTWOOD", "ISD": "AUSTIN ISD", "ADDRESS": "6700 ARROYO SECO", "CITY": "AUSTIN", "STATE": "TX", "ZIP": "78757", "CAMPUS_ID": "107" }, "geometry": { "type": "Point", "coordinates": [ -97.73145124199999, 30.339799905000064 ] } },
{ "type": "Feature", "properties": { "OBJECTID": 29542, "CLASS": "DISTRICT", "NAME": "SITE 903", "ISD": "AUSTIN ISD", "ADDRESS": "3100 4TH STREET", "CITY": "AUSTIN", "STATE": "TX", "ZIP": "78702", "CAMPUS_ID": "903" }, "geometry": { "type": "Point", "coordinates": [ -97.708090090999974, 30.254773847000024 ] } },
{ "type": "Feature", "properties": { "OBJECTID": 29543, "CLASS": "ELEM", "NAME": "BROWN", "ISD": "AUSTIN ISD", "ADDRESS": "505 W. ANDERSON LANE", "CITY": "AUSTIN", "STATE": "TX", "ZIP": "78752", "CAMPUS_ID": "109" }, "geometry": { "type": "Point", "coordinates": [ -97.709086722999984, 30.344812522000041 ] } },
{ "type": "Feature", "properties": { "OBJECTID": 29544, "CLASS": "ELEM", "NAME": "WOOTEN", "ISD": "AUSTIN ISD", "ADDRESS": "1406 DALE DRIVE", "CITY": "AUSTIN", "STATE": "TX", "ZIP": "78757", "CAMPUS_ID": "144" }, "geometry": { "type": "Point", "coordinates": [ -97.719183925999971, 30.353604611000041 ] } },
{ "type": "Feature", "properties": { "OBJECTID": 29545, "CLASS": "ELEM", "NAME": "ZAVALA", "ISD": "AUSTIN ISD", "ADDRESS": "310 ROBERT MARTINEZ JR. STREET", "CITY": "AUSTIN", "STATE": "TX", "ZIP": "78702", "CAMPUS_ID": "145" }, "geometry": { "type": "Point", "coordinates": [ -97.719995519999941, 30.258037910000045 ] } },
{ "type": "Feature", "properties": { "OBJECTID": 29546, "CLASS": "ELEM", "NAME": "ZILKER", "ISD": "AUSTIN ISD", "ADDRESS": "1900 BLUEBONNET LANE", "CITY": "AUSTIN", "STATE": "TX", "ZIP": "78704", "CAMPUS_ID": "146" }, "geometry": { "type": "Point", "coordinates": [ -97.774123946999964, 30.252749876000056 ] } },
{ "type": "Feature", "properties": { "OBJECTID": 29547, "CLASS": "ELEM", "NAME": "OAK HILL", "ISD": "AUSTIN ISD", "ADDRESS": "6101 PATTON RANCH ROAD", "CITY": "AUSTIN", "STATE": "TX", "ZIP": "78735", "CAMPUS_ID": "148" }, "geometry": { "type": "Point", "coordinates": [ -97.858853279999948, 30.238107798000048 ] } },
{ "type": "Feature", "properties": { "OBJECTID": 29548, "CLASS": "ELEM", "NAME": "CLAYTON", "ISD": "AUSTIN ISD", "ADDRESS": "7525 LA CROSSE AVE.", "CITY": "AUSTIN", "STATE": "TX", "ZIP": "78739", "CAMPUS_ID": "184" }, "geometry": { "type": "Point", "coordinates": [ -97.906444410999939, 30.194849476000059 ] } },
{ "type": "Feature", "properties": { "OBJECTID": 29549, "CLASS": "ELEM", "NAME": "BLAZIER 4-6", "ISD": "AUSTIN ISD", "ADDRESS": "8801 VERTEX BLVD", "CITY": "AUSTIN", "STATE": "TX", "ZIP": "78744", "CAMPUS_ID": "185" }, "geometry": { "type": "Point", "coordinates": [ -97.751630587999955, 30.156212394000082 ] } },
{ "type": "Feature", "properties": { "OBJECTID": 29550, "CLASS": "ELEM", "NAME": "OVERTON", "ISD": "AUSTIN ISD", "ADDRESS": "7201 COLONY LOOP DRIVE", "CITY": "AUSTIN", "STATE": "TX", "ZIP": "78724", "CAMPUS_ID": "189" }, "geometry": { "type": "Point", "coordinates": [ -97.636188890999961, 30.30024080000004 ] } },
{ "type": "Feature", "properties": { "OBJECTID": 29551, "CLASS": "ELEM", "NAME": "BALDWIN", "ISD": "AUSTIN ISD", "ADDRESS": "12200 MERIDIAN PARK BLVD", "CITY": "AUSTIN", "STATE": "TX", "ZIP": "78739", "CAMPUS_ID": "187" }, "geometry": { "type": "Point", "coordinates": [ -97.923290706999978, 30.184839726000064 ] } },
{ "type": "Feature", "properties": { "OBJECTID": 29552, "CLASS": "ELEM", "NAME": "PEREZ", "ISD": "AUSTIN ISD", "ADDRESS": "7500 S. PLEASANT VALLEY ROAD", "CITY": "AUSTIN", "STATE": "TX", "ZIP": "78744", "CAMPUS_ID": "190" }, "geometry": { "type": "Point", "coordinates": [ -97.75630334499999, 30.17048121900007 ] } },
{ "type": "Feature", "properties": { "OBJECTID": 29553, "CLASS": "MID", "NAME": "PAREDES", "ISD": "AUSTIN ISD", "ADDRESS": "10100 S. MARY MOORE SEARIGHT DRIVE", "CITY": "AUSTIN", "STATE": "TX", "ZIP": "78748", "CAMPUS_ID": "061" }, "geometry": { "type": "Point", "coordinates": [ -97.811457104999988, 30.167068751000041 ] } },
{ "type": "Feature", "properties": { "OBJECTID": 29554, "CLASS": "ELEM", "NAME": "GRAHAM", "ISD": "AUSTIN ISD", "ADDRESS": "11211 TOM ADAMS DRIVE", "CITY": "AUSTIN", "STATE": "TX", "ZIP": "78753", "CAMPUS_ID": "159" }, "geometry": { "type": "Point", "coordinates": [ -97.66889682599998, 30.372354104000067 ] } },
{ "type": "Feature", "properties": { "OBJECTID": 29555, "CLASS": "ELEM", "NAME": "GULLETT", "ISD": "AUSTIN ISD", "ADDRESS": "6310 TREADWELL BLVD.", "CITY": "AUSTIN", "STATE": "TX", "ZIP": "78757", "CAMPUS_ID": "117" }, "geometry": { "type": "Point", "coordinates": [ -97.748645985999985, 30.343708587000037 ] } },
{ "type": "Feature", "properties": { "OBJECTID": 29556, "CLASS": "ELEM", "NAME": "HARRIS", "ISD": "AUSTIN ISD", "ADDRESS": "1711 WHELESS LANE", "CITY": "AUSTIN", "STATE": "TX", "ZIP": "78723", "CAMPUS_ID": "118" }, "geometry": { "type": "Point", "coordinates": [ -97.691047580999964, 30.314894818000031 ] } },
{ "type": "Feature", "properties": { "OBJECTID": 29557, "CLASS": "ELEM", "NAME": "HIGHLAND PARK", "ISD": "AUSTIN ISD", "ADDRESS": "4900 FAIRVIEW DRIVE", "CITY": "AUSTIN", "STATE": "TX", "ZIP": "78731", "CAMPUS_ID": "119" }, "geometry": { "type": "Point", "coordinates": [ -97.759835086999942, 30.330352326000025 ] } },
{ "type": "Feature", "properties": { "OBJECTID": 29558, "CLASS": "ELEM", "NAME": "HILL", "ISD": "AUSTIN ISD", "ADDRESS": "8601 TALLWOOD DRIVE", "CITY": "AUSTIN", "STATE": "TX", "ZIP": "78759", "CAMPUS_ID": "155" }, "geometry": { "type": "Point", "coordinates": [ -97.74860347399999, 30.376591160000036 ] } },
{ "type": "Feature", "properties": { "OBJECTID": 29559, "CLASS": "ELEM", "NAME": "HOUSTON", "ISD": "AUSTIN ISD", "ADDRESS": "5409 PONCIANA DRIVE", "CITY": "AUSTIN", "STATE": "TX", "ZIP": "78744", "CAMPUS_ID": "162" }, "geometry": { "type": "Point", "coordinates": [ -97.755070806999981, 30.19775328400004 ] } },
{ "type": "Feature", "properties": { "OBJECTID": 29560, "CLASS": "ELEM", "NAME": "JORDAN", "ISD": "AUSTIN ISD", "ADDRESS": "6711 JOHNNY MORRIS ROAD", "CITY": "AUSTIN", "STATE": "TX", "ZIP": "78724", "CAMPUS_ID": "178" }, "geometry": { "type": "Point", "coordinates": [ -97.646919924999963, 30.300849958000068 ] } },
{ "type": "Feature", "properties": { "OBJECTID": 29561, "CLASS": "ELEM", "NAME": "JOSLIN", "ISD": "AUSTIN ISD", "ADDRESS": "4500 MENCHACA ROAD", "CITY": "AUSTIN", "STATE": "TX", "ZIP": "78745", "CAMPUS_ID": "198" }, "geometry": { "type": "Point", "coordinates": [ -97.790210370999944, 30.227983047000066 ] } },
{ "type": "Feature", "properties": { "OBJECTID": 29562, "CLASS": "ELEM", "NAME": "KIKER", "ISD": "AUSTIN ISD", "ADDRESS": "5913 LA CROSSE AVE.", "CITY": "AUSTIN", "STATE": "TX", "ZIP": "78739", "CAMPUS_ID": "180" }, "geometry": { "type": "Point", "coordinates": [ -97.881237466999949, 30.191540691000057 ] } },
{ "type": "Feature", "properties": { "OBJECTID": 29563, "CLASS": "ELEM", "NAME": "KOCUREK", "ISD": "AUSTIN ISD", "ADDRESS": "9800 CURLEW DRIVE", "CITY": "AUSTIN", "STATE": "TX", "ZIP": "78748", "CAMPUS_ID": "172" }, "geometry": { "type": "Point", "coordinates": [ -97.834982491999938, 30.178047358000072 ] } },
{ "type": "Feature", "properties": { "OBJECTID": 29564, "CLASS": "ELEM", "NAME": "ORTEGA", "ISD": "AUSTIN ISD", "ADDRESS": "1135 GARLAND AVE.", "CITY": "AUSTIN", "STATE": "TX", "ZIP": "78721", "CAMPUS_ID": "126" }, "geometry": { "type": "Point", "coordinates": [ -97.684325670999954, 30.270011177000075 ] } },
{ "type": "Feature", "properties": { "OBJECTID": 29565, "CLASS": "ELEM", "NAME": "PALM", "ISD": "AUSTIN ISD", "ADDRESS": "7601 DIXIE DRIVE", "CITY": "AUSTIN", "STATE": "TX", "ZIP": "78744", "CAMPUS_ID": "171" }, "geometry": { "type": "Point", "coordinates": [ -97.743883710999967, 30.164859374000059 ] } },
{ "type": "Feature", "properties": { "OBJECTID": 29566, "CLASS": "ELEM", "NAME": "PATTON", "ISD": "AUSTIN ISD", "ADDRESS": "6001 WESTCREEK DRIVE", "CITY": "AUSTIN", "STATE": "TX", "ZIP": "78749", "CAMPUS_ID": "143" }, "geometry": { "type": "Point", "coordinates": [ -97.845333449999941, 30.231730563000038 ] } },
{ "type": "Feature", "properties": { "OBJECTID": 29567, "CLASS": "DISTRICT", "NAME": "SITE 906", "ISD": "AUSTIN ISD", "ADDRESS": "1106 RIO GRANDE", "CITY": "AUSTIN", "STATE": "TX", "ZIP": "78701", "CAMPUS_ID": "906" }, "geometry": { "type": "Point", "coordinates": [ -97.747944061999988, 30.275176370000054 ] } },
{ "type": "Feature", "properties": { "OBJECTID": 29568, "CLASS": "ELEM", "NAME": "PECAN SPRINGS", "ISD": "AUSTIN ISD", "ADDRESS": "3100 ROGGE LANE", "CITY": "AUSTIN", "STATE": "TX", "ZIP": "78723", "CAMPUS_ID": "129" }, "geometry": { "type": "Point", "coordinates": [ -97.676807691999969, 30.303025046000077 ] } },
{ "type": "Feature", "properties": { "OBJECTID": 29569, "CLASS": "ELEM", "NAME": "PILLOW", "ISD": "AUSTIN ISD", "ADDRESS": "3025 CROSSCREEK DRIVE", "CITY": "AUSTIN", "STATE": "TX", "ZIP": "78757", "CAMPUS_ID": "151" }, "geometry": { "type": "Point", "coordinates": [ -97.733142857999951, 30.369158919000029 ] } },
{ "type": "Feature", "properties": { "OBJECTID": 29570, "CLASS": "ELEM", "NAME": "PLEASANT HILL", "ISD": "AUSTIN ISD", "ADDRESS": "6405 CIRCLE S ROAD", "CITY": "AUSTIN", "STATE": "TX", "ZIP": "78745", "CAMPUS_ID": "130" }, "geometry": { "type": "Point", "coordinates": [ -97.776195280999957, 30.19638805600005 ] } },
{ "type": "Feature", "properties": { "OBJECTID": 29571, "CLASS": "ELEM", "NAME": "REILLY", "ISD": "AUSTIN ISD", "ADDRESS": "405 DENSON DRIVE", "CITY": "AUSTIN", "STATE": "TX", "ZIP": "78752", "CAMPUS_ID": "132" }, "geometry": { "type": "Point", "coordinates": [ -97.719958524, 30.328237515000069 ] } },
{ "type": "Feature", "properties": { "OBJECTID": 29572, "CLASS": "ELEM", "NAME": "RIDGETOP", "ISD": "AUSTIN ISD", "ADDRESS": "5005 CASWELL AVE.", "CITY": "AUSTIN", "STATE": "TX", "ZIP": "78751", "CAMPUS_ID": "133" }, "geometry": { "type": "Point", "coordinates": [ -97.716287936999947, 30.311984855000048 ] } },
{ "type": "Feature", "properties": { "OBJECTID": 29573, "CLASS": "ELEM", "NAME": "SANCHEZ", "ISD": "AUSTIN ISD", "ADDRESS": "73 SAN MARCOS STREET", "CITY": "AUSTIN", "STATE": "TX", "ZIP": "78702", "CAMPUS_ID": "127" }, "geometry": { "type": "Point", "coordinates": [ -97.73518828899995, 30.258074459000056 ] } },
{ "type": "Feature", "properties": { "OBJECTID": 29574, "CLASS": "MID", "NAME": "SMALL", "ISD": "AUSTIN ISD", "ADDRESS": "4801 MONTEREY OAKS BLVD.", "CITY": "AUSTIN", "STATE": "TX", "ZIP": "78749", "CAMPUS_ID": "060" }, "geometry": { "type": "Point", "coordinates": [ -97.84186341899999, 30.233639738000079 ] } },
{ "type": "Feature", "properties": { "OBJECTID": 29575, "CLASS": "MID", "NAME": "BAILEY", "ISD": "AUSTIN ISD", "ADDRESS": "4020 LOST OASIS HOLLOW", "CITY": "AUSTIN", "STATE": "TX", "ZIP": "78739", "CAMPUS_ID": "059" }, "geometry": { "type": "Point", "coordinates": [ -97.872363606999954, 30.164279990000065 ] } },
{ "type": "Feature", "properties": { "OBJECTID": 29576, "CLASS": "MID", "NAME": "BEDICHEK", "ISD": "AUSTIN ISD", "ADDRESS": "6800 BILL HUGHES ROAD", "CITY": "AUSTIN", "STATE": "TX", "ZIP": "78745", "CAMPUS_ID": "054" }, "geometry": { "type": "Point", "coordinates": [ -97.786718223999969, 30.194418913000053 ] } },
{ "type": "Feature", "properties": { "OBJECTID": 29577, "CLASS": "MID", "NAME": "BURNET", "ISD": "AUSTIN ISD", "ADDRESS": "8401 HATHAWAY STREET", "CITY": "AUSTIN", "STATE": "TX", "ZIP": "78757", "CAMPUS_ID": "046" }, "geometry": { "type": "Point", "coordinates": [ -97.725486936999971, 30.363827933000042 ] } },
{ "type": "Feature", "properties": { "OBJECTID": 29578, "CLASS": "MID", "NAME": "COVINGTON", "ISD": "AUSTIN ISD", "ADDRESS": "3700 CONVICT HILL ROAD", "CITY": "AUSTIN", "STATE": "TX", "ZIP": "78749", "CAMPUS_ID": "057" }, "geometry": { "type": "Point", "coordinates": [ -97.83455179799995, 30.212567401000062 ] } },
{ "type": "Feature", "properties": { "OBJECTID": 29579, "CLASS": "MID", "NAME": "DOBIE", "ISD": "AUSTIN ISD", "ADDRESS": "1200 E. RUNDBERG LANE", "CITY": "AUSTIN", "STATE": "TX", "ZIP": "78753", "CAMPUS_ID": "055" }, "geometry": { "type": "Point", "coordinates": [ -97.68036350599999, 30.354264267000076 ] } },
{ "type": "Feature", "properties": { "OBJECTID": 29580, "CLASS": "MID", "NAME": "LIVELY", "ISD": "AUSTIN ISD", "ADDRESS": "201 E. MARY STREET", "CITY": "AUSTIN", "STATE": "TX", "ZIP": "78704", "CAMPUS_ID": "043" }, "geometry": { "type": "Point", "coordinates": [ -97.750274518999959, 30.243671105000033 ] } },
{ "type": "Feature", "properties": { "OBJECTID": 29581, "CLASS": "MID", "NAME": "KEALING", "ISD": "AUSTIN ISD", "ADDRESS": "1607 PENNSYLVANIA AVE.", "CITY": "AUSTIN", "STATE": "TX", "ZIP": "78702", "CAMPUS_ID": "044" }, "geometry": { "type": "Point", "coordinates": [ -97.721861765999961, 30.27089087600007 ] } },
{ "type": "Feature", "properties": { "OBJECTID": 29582, "CLASS": "MID", "NAME": "LAMAR", "ISD": "AUSTIN ISD", "ADDRESS": "6201 WYNONA STREET", "CITY": "AUSTIN", "STATE": "TX", "ZIP": "78757", "CAMPUS_ID": "045" }, "geometry": { "type": "Point", "coordinates": [ -97.740545410999971, 30.337817990000076 ] } },
{ "type": "Feature", "properties": { "OBJECTID": 29583, "CLASS": "MID", "NAME": "MARTIN", "ISD": "AUSTIN ISD", "ADDRESS": "1601 HASKELL STREET", "CITY": "AUSTIN", "STATE": "TX", "ZIP": "78702", "CAMPUS_ID": "051" }, "geometry": { "type": "Point", "coordinates": [ -97.729889621999973, 30.253040805000069 ] } },
{ "type": "Feature", "properties": { "OBJECTID": 29584, "CLASS": "MID", "NAME": "MENDEZ", "ISD": "AUSTIN ISD", "ADDRESS": "5106 VILLAGE SQUARE DRIVE", "CITY": "AUSTIN", "STATE": "TX", "ZIP": "78744", "CAMPUS_ID": "058" }, "geometry": { "type": "Point", "coordinates": [ -97.743480850999958, 30.189228133000025 ] } },
{ "type": "Feature", "properties": { "OBJECTID": 29585, "CLASS": "MID", "NAME": "MURCHISON", "ISD": "AUSTIN ISD", "ADDRESS": "3700 N HILLS DRIVE", "CITY": "AUSTIN", "STATE": "TX", "ZIP": "78731", "CAMPUS_ID": "052" }, "geometry": { "type": "Point", "coordinates": [ -97.758370653999975, 30.354163238000073 ] } },
{ "type": "Feature", "properties": { "OBJECTID": 29586, "CLASS": "MID", "NAME": "O HENRY", "ISD": "AUSTIN ISD", "ADDRESS": "2610 W. 10TH STREET", "CITY": "AUSTIN", "STATE": "TX", "ZIP": "78735", "CAMPUS_ID": "047" }, "geometry": { "type": "Point", "coordinates": [ -97.774150327999962, 30.285728107000072 ] } },
{ "type": "Feature", "properties": { "OBJECTID": 29587, "CLASS": "MID", "NAME": "SADLER MEANS", "ISD": "AUSTIN ISD", "ADDRESS": "6401 N. HAMPTON DRIVE", "CITY": "AUSTIN", "STATE": "TX", "ZIP": "78723", "CAMPUS_ID": "065" }, "geometry": { "type": "Point", "coordinates": [ -97.68048358099999, 30.31369700700003 ] } },
{ "type": "Feature", "properties": { "OBJECTID": 29588, "CLASS": "MID", "NAME": "WEBB", "ISD": "AUSTIN ISD", "ADDRESS": "601 E. ST. JOHNS AVE.", "CITY": "AUSTIN", "STATE": "TX", "ZIP": "78752", "CAMPUS_ID": "053" }, "geometry": { "type": "Point", "coordinates": [ -97.706854045999989, 30.333496352000054 ] } },
{ "type": "Feature", "properties": { "OBJECTID": 29589, "CLASS": "MID", "NAME": "GORZYCKI", "ISD": "AUSTIN ISD", "ADDRESS": "7412 W. SLAUGHTER LANE", "CITY": "AUSTIN", "STATE": "TX", "ZIP": "78749", "CAMPUS_ID": "062" }, "geometry": { "type": "Point", "coordinates": [ -97.891848276999951, 30.214311899000055 ] } },
{ "type": "Feature", "properties": { "OBJECTID": 29590, "CLASS": "MID", "NAME": "GARCIA", "ISD": "AUSTIN ISD", "ADDRESS": "7414 JOHNNY MORRIS ROAD", "CITY": "AUSTIN", "STATE": "TX", "ZIP": "78724", "CAMPUS_ID": "064" }, "geometry": { "type": "Point", "coordinates": [ -97.642754446999959, 30.311463771000035 ] } },
{ "type": "Feature", "properties": { "OBJECTID": 29591, "CLASS": "HIGH", "NAME": "GARZA", "ISD": "AUSTIN ISD", "ADDRESS": "1600 CHICON STREET", "CITY": "AUSTIN", "STATE": "TX", "ZIP": "78702", "CAMPUS_ID": "015" }, "geometry": { "type": "Point", "coordinates": [ -97.72100290899999, 30.277438907000032 ] } },
{ "type": "Feature", "properties": { "OBJECTID": 29592, "CLASS": "HIGH", "NAME": "AKINS", "ISD": "AUSTIN ISD", "ADDRESS": "10701 S. FIRST STREET", "CITY": "AUSTIN", "STATE": "TX", "ZIP": "78748", "CAMPUS_ID": "017" }, "geometry": { "type": "Point", "coordinates": [ -97.800925284999948, 30.149085824000057 ] } },
{ "type": "Feature", "properties": { "OBJECTID": 29593, "CLASS": "HIGH", "NAME": "ANDERSON", "ISD": "AUSTIN ISD", "ADDRESS": "8403 MESA DRIVE", "CITY": "AUSTIN", "STATE": "TX", "ZIP": "78759", "CAMPUS_ID": "009" }, "geometry": { "type": "Point", "coordinates": [ -97.753185162999955, 30.375655041000073 ] } },
{ "type": "Feature", "properties": { "OBJECTID": 29594, "CLASS": "HIGH", "NAME": "BOWIE", "ISD": "AUSTIN ISD", "ADDRESS": "4103 W. SLAUGHTER LANE", "CITY": "AUSTIN", "STATE": "TX", "ZIP": "78749", "CAMPUS_ID": "013" }, "geometry": { "type": "Point", "coordinates": [ -97.858778823999955, 30.186915879000026 ] } },
{ "type": "Feature", "properties": { "OBJECTID": 29595, "CLASS": "HIGH", "NAME": "CROCKETT", "ISD": "AUSTIN ISD", "ADDRESS": "5601 MENCHACA ROAD", "CITY": "AUSTIN", "STATE": "TX", "ZIP": "78745", "CAMPUS_ID": "008" }, "geometry": { "type": "Point", "coordinates": [ -97.796966574999942, 30.213921697000046 ] } },
{ "type": "Feature", "properties": { "OBJECTID": 29596, "CLASS": "HIGH", "NAME": "NAVARRO", "ISD": "AUSTIN ISD", "ADDRESS": "1201 PAYTON GIN ROAD", "CITY": "AUSTIN", "STATE": "TX", "ZIP": "78758", "CAMPUS_ID": "004" }, "geometry": { "type": "Point", "coordinates": [ -97.707960414999945, 30.360308041000049 ] } },
{ "type": "Feature", "properties": { "OBJECTID": 29597, "CLASS": "HIGH", "NAME": "LBJ", "ISD": "AUSTIN ISD", "ADDRESS": "7309 LAZY CREEK DRIVE", "CITY": "AUSTIN", "STATE": "TX", "ZIP": "78724", "CAMPUS_ID": "014" }, "geometry": { "type": "Point", "coordinates": [ -97.656623000999957, 30.314568555000051 ] } },
{ "type": "Feature", "properties": { "OBJECTID": 29598, "CLASS": "HIGH", "NAME": "NORTHEAST/INTERNATIONAL", "ISD": "AUSTIN ISD", "ADDRESS": "7104 BERKMAN DRIVE", "CITY": "AUSTIN", "STATE": "TX", "ZIP": "78752", "CAMPUS_ID": "006" }, "geometry": { "type": "Point", "coordinates": [ -97.691164237999942, 30.324144249000032 ] } },
{ "type": "Feature", "properties": { "OBJECTID": 29599, "CLASS": "HIGH", "NAME": "TRAVIS", "ISD": "AUSTIN ISD", "ADDRESS": "1211 E. OLTORF STREET", "CITY": "AUSTIN", "STATE": "TX", "ZIP": "78704", "CAMPUS_ID": "007" }, "geometry": { "type": "Point", "coordinates": [ -97.74454510599999, 30.233332373000056 ] } },
{ "type": "Feature", "properties": { "OBJECTID": 29600, "CLASS": "HIGH", "NAME": "AUSTIN", "ISD": "AUSTIN ISD", "ADDRESS": "1715 W. CESAR CHAVEZ STREET", "CITY": "AUSTIN", "STATE": "TX", "ZIP": "78703", "CAMPUS_ID": "002" }, "geometry": { "type": "Point", "coordinates": [ -97.767153309999969, 30.273810837000045 ] } },
{ "type": "Feature", "properties": { "OBJECTID": 29601, "CLASS": "HIGH", "NAME": "MCCALLUM", "ISD": "AUSTIN ISD", "ADDRESS": "5600 SUNSHINE DRIVE", "CITY": "AUSTIN", "STATE": "TX", "ZIP": "78756", "CAMPUS_ID": "005" }, "geometry": { "type": "Point", "coordinates": [ -97.730282575999979, 30.325801637000044 ] } },
{ "type": "Feature", "properties": { "OBJECTID": 29604, "CLASS": "ALT ED 1", "NAME": "ROSEDALE", "ISD": "AUSTIN ISD", "ADDRESS": "2608 RICH CREEK", "CITY": "AUSTIN", "STATE": "TX", "ZIP": "78757", "CAMPUS_ID": "251" }, "geometry": { "type": "Point", "coordinates": [ -97.737251844999946, 30.352738924000054 ] } },
{ "type": "Feature", "properties": { "OBJECTID": 29605, "CLASS": "HIGH", "NAME": "EASTSIDE ECHS", "ISD": "AUSTIN ISD", "ADDRESS": "900 THOMPSON STREET", "CITY": "AUSTIN", "STATE": "TX", "ZIP": "78702", "CAMPUS_ID": "142" }, "geometry": { "type": "Point", "coordinates": [ -97.709058418, 30.269746816000062 ] } },
{ "type": "Feature", "properties": { "OBJECTID": 29607, "CLASS": "HIGH", "NAME": "LASA", "ISD": "AUSTIN ISD", "ADDRESS": "1012 ARTHUR STILES ROAD", "CITY": "AUSTIN", "STATE": "TX", "ZIP": "78721", "CAMPUS_ID": "019" }, "geometry": { "type": "Point", "coordinates": [ -97.680374939999979, 30.258714193000056 ] } },
{ "type": "Feature", "properties": { "OBJECTID": 29608, "CLASS": "ELEM", "NAME": "BRYKER WOODS", "ISD": "AUSTIN ISD", "ADDRESS": "3309 KERBEY LANE", "CITY": "AUSTIN", "STATE": "TX", "ZIP": "78703", "CAMPUS_ID": "110" }, "geometry": { "type": "Point", "coordinates": [ -97.750920027999939, 30.305369168000027 ] } },
{ "type": "Feature", "properties": { "OBJECTID": 29609, "CLASS": "ELEM", "NAME": "CAMPBELL", "ISD": "AUSTIN ISD", "ADDRESS": "2613 ROGERS AVE.", "CITY": "AUSTIN", "STATE": "TX", "ZIP": "78722", "CAMPUS_ID": "111" }, "geometry": { "type": "Point", "coordinates": [ -97.713853665999977, 30.282516119000039 ] } },
{ "type": "Feature", "properties": { "OBJECTID": 29610, "CLASS": "ELEM", "NAME": "CASIS", "ISD": "AUSTIN ISD", "ADDRESS": "2710 EXPOSITION BLVD.", "CITY": "AUSTIN", "STATE": "TX", "ZIP": "78703", "CAMPUS_ID": "112" }, "geometry": { "type": "Point", "coordinates": [ -97.765508574999956, 30.304354434000064 ] } },
{ "type": "Feature", "properties": { "OBJECTID": 29611, "CLASS": "ELEM", "NAME": "COOK", "ISD": "AUSTIN ISD", "ADDRESS": "1511 CRIPPLE CREEK DRIVE", "CITY": "AUSTIN", "STATE": "TX", "ZIP": "78758", "CAMPUS_ID": "161" }, "geometry": { "type": "Point", "coordinates": [ -97.704665301999967, 30.377854415000058 ] } },
{ "type": "Feature", "properties": { "OBJECTID": 29612, "CLASS": "ELEM", "NAME": "CUNNINGHAM", "ISD": "AUSTIN ISD", "ADDRESS": "2200 BERKELEY AVE.", "CITY": "AUSTIN", "STATE": "TX", "ZIP": "78745", "CAMPUS_ID": "113" }, "geometry": { "type": "Point", "coordinates": [ -97.805974824999964, 30.210284973000061 ] } },
{ "type": "Feature", "properties": { "OBJECTID": 29613, "CLASS": "ELEM", "NAME": "DAVIS", "ISD": "AUSTIN ISD", "ADDRESS": "5214 DUVAL ROAD", "CITY": "AUSTIN", "STATE": "TX", "ZIP": "78727", "CAMPUS_ID": "179" }, "geometry": { "type": "Point", "coordinates": [ -97.741342427999939, 30.418619240000059 ] } },
{ "type": "Feature", "properties": { "OBJECTID": 29614, "CLASS": "ELEM", "NAME": "DAWSON", "ISD": "AUSTIN ISD", "ADDRESS": "3001 S. 1ST STREET", "CITY": "AUSTIN", "STATE": "TX", "ZIP": "78704", "CAMPUS_ID": "114" }, "geometry": { "type": "Point", "coordinates": [ -97.763599237999983, 30.234097144000032 ] } },
{ "type": "Feature", "properties": { "OBJECTID": 29615, "CLASS": "ELEM", "NAME": "DOSS", "ISD": "AUSTIN ISD", "ADDRESS": "7005 NORTHLEDGE DRIVE", "CITY": "AUSTIN", "STATE": "TX", "ZIP": "78731", "CAMPUS_ID": "154" }, "geometry": { "type": "Point", "coordinates": [ -97.762333079999962, 30.356454013000079 ] } },
{ "type": "Feature", "properties": { "OBJECTID": 29616, "CLASS": "ELEM", "NAME": "GALINDO", "ISD": "AUSTIN ISD", "ADDRESS": "3800 S. 2ND STREET", "CITY": "AUSTIN", "STATE": "TX", "ZIP": "78704", "CAMPUS_ID": "176" }, "geometry": { "type": "Point", "coordinates": [ -97.77181160899994, 30.229524409000081 ] } },
{ "type": "Feature", "properties": { "OBJECTID": 29617, "CLASS": "ELEM", "NAME": "GOVALLE", "ISD": "AUSTIN ISD", "ADDRESS": "3601 GOVALLE AVE.", "CITY": "AUSTIN", "STATE": "TX", "ZIP": "78702", "CAMPUS_ID": "116" }, "geometry": { "type": "Point", "coordinates": [ -97.698586490999958, 30.264157230000023 ] } },
{ "type": "Feature", "properties": { "OBJECTID": 29618, "CLASS": "ELEM", "NAME": "BARANOFF", "ISD": "AUSTIN ISD", "ADDRESS": "12009 BUCKINGHAM GATE ROAD", "CITY": "AUSTIN", "STATE": "TX", "ZIP": "78748", "CAMPUS_ID": "182" }, "geometry": { "type": "Point", "coordinates": [ -97.852032297999983, 30.15382154100007 ] } },
{ "type": "Feature", "properties": { "OBJECTID": 29619, "CLASS": "ELEM", "NAME": "CASEY", "ISD": "AUSTIN ISD", "ADDRESS": "9400 TEXAS OAKS DRIVE", "CITY": "AUSTIN", "STATE": "TX", "ZIP": "78748", "CAMPUS_ID": "173" }, "geometry": { "type": "Point", "coordinates": [ -97.814849948999949, 30.176860730000048 ] } },
{ "type": "Feature", "properties": { "OBJECTID": 29620, "CLASS": "ELEM", "NAME": "COWAN", "ISD": "AUSTIN ISD", "ADDRESS": "2817 KENTISH DRIVE", "CITY": "AUSTIN", "STATE": "TX", "ZIP": "78748", "CAMPUS_ID": "183" }, "geometry": { "type": "Point", "coordinates": [ -97.833434687999954, 30.188683986000054 ] } },
{ "type": "Feature", "properties": { "OBJECTID": 29621, "CLASS": "ELEM", "NAME": "HART", "ISD": "AUSTIN ISD", "ADDRESS": "8301 FURNESS STREET", "CITY": "AUSTIN", "STATE": "TX", "ZIP": "78753", "CAMPUS_ID": "163" }, "geometry": { "type": "Point", "coordinates": [ -97.688635610999938, 30.342462309000037 ] } },
{ "type": "Feature", "properties": { "OBJECTID": 29622, "CLASS": "ELEM", "NAME": "MCBEE", "ISD": "AUSTIN ISD", "ADDRESS": "1001 WEST BRAKER", "CITY": "AUSTIN", "STATE": "TX", "ZIP": "78758", "CAMPUS_ID": "165" }, "geometry": { "type": "Point", "coordinates": [ -97.691094586999952, 30.383218188000058 ] } },
{ "type": "Feature", "properties": { "OBJECTID": 29623, "CLASS": "ELEM", "NAME": "MILLS", "ISD": "AUSTIN ISD", "ADDRESS": "6201 DAVIS LANE", "CITY": "AUSTIN", "STATE": "TX", "ZIP": "78749", "CAMPUS_ID": "181" }, "geometry": { "type": "Point", "coordinates": [ -97.877695084, 30.210647689000041 ] } },
{ "type": "Feature", "properties": { "OBJECTID": 29624, "CLASS": "ELEM", "NAME": "PICKLE", "ISD": "AUSTIN ISD", "ADDRESS": "1101 WHEATLEY AVE.", "CITY": "AUSTIN", "STATE": "TX", "ZIP": "78752", "CAMPUS_ID": "164" }, "geometry": { "type": "Point", "coordinates": [ -97.693826787999967, 30.333081363000073 ] } },
{ "type": "Feature", "properties": { "OBJECTID": 29625, "CLASS": "ELEM", "NAME": "RODRIGUEZ", "ISD": "AUSTIN ISD", "ADDRESS": "4400 FRANKLIN PARK DRIVE", "CITY": "AUSTIN", "STATE": "TX", "ZIP": "78744", "CAMPUS_ID": "174" }, "geometry": { "type": "Point", "coordinates": [ -97.747339828999941, 30.200691326000026 ] } },
{ "type": "Feature", "properties": { "OBJECTID": 29626, "CLASS": "ALT ED 1", "NAME": "ALC", "ISD": "AUSTIN ISD", "ADDRESS": "4900 GONZALES STREET", "CITY": "AUSTIN", "STATE": "TX", "ZIP": "78702", "CAMPUS_ID": "012" }, "geometry": { "type": "Point", "coordinates": [ -97.697133354999949, 30.256067088000066 ] } },
{ "type": "Feature", "properties": { "OBJECTID": 29627, "CLASS": "ELEM", "NAME": "ALLISON", "ISD": "AUSTIN ISD", "ADDRESS": "515 VARGAS ROAD", "CITY": "AUSTIN", "STATE": "TX", "ZIP": "78741", "CAMPUS_ID": "101" }, "geometry": { "type": "Point", "coordinates": [ -97.691597196999965, 30.236035031000032 ] } },
{ "type": "Feature", "properties": { "OBJECTID": 29628, "CLASS": "ELEM", "NAME": "UPHAUS", "ISD": "AUSTIN ISD", "ADDRESS": "5200 FREIDRICH LANE", "CITY": "AUSTIN", "STATE": "TX", "ZIP": "78744", "CAMPUS_ID": "177" }, "geometry": { "type": "Point", "coordinates": [ -97.755755145999956, 30.201677209000025 ] } },
{ "type": "Feature", "properties": { "OBJECTID": 29629, "CLASS": "ALT ED 1", "NAME": "TRAVIS GPA", "ISD": "AUSTIN ISD", "ADDRESS": "1211 E. OLTORF STREET", "CITY": "AUSTIN", "STATE": "TX", "ZIP": "78704", "CAMPUS_ID": "023" }, "geometry": { "type": "Point", "coordinates": [ -97.744553958999973, 30.234853022000035 ] } },
{ "type": "Feature", "properties": { "OBJECTID": 29630, "CLASS": "ALT ED 1", "NAME": "NAVARRO GPA", "ISD": "AUSTIN ISD", "ADDRESS": "1201 PAYTON GIN ROAD", "CITY": "AUSTIN", "STATE": "TX", "ZIP": "78758", "CAMPUS_ID": "026" }, "geometry": { "type": "Point", "coordinates": [ -97.708809671999973, 30.361380152000038 ] } },
{ "type": "Feature", "properties": { "OBJECTID": 29631, "CLASS": "ALT ED 1", "NAME": "DAEP", "ISD": "AUSTIN ISD", "ADDRESS": "906 W MILTON STREET", "CITY": "AUSTIN", "STATE": "TX", "ZIP": "78704", "CAMPUS_ID": "115" }, "geometry": { "type": "Point", "coordinates": [ -97.760066369999947, 30.250788101000072 ] } },
{ "type": "Feature", "properties": { "OBJECTID": 29632, "CLASS": "ELEM", "NAME": "GUERRERO THOMPSON", "ISD": "AUSTIN ISD", "ADDRESS": "102 E. RUNDBERG LANE", "CITY": "AUSTIN", "STATE": "TX", "ZIP": "78753", "CAMPUS_ID": "186" }, "geometry": { "type": "Point", "coordinates": [ -97.693216322999945, 30.360927834000051 ] } },
{ "type": "Feature", "properties": { "OBJECTID": 29638, "CLASS": "ELEM", "NAME": "PADRON", "ISD": "AUSTIN ISD", "ADDRESS": "2011 W. RUNDBERG LANE", "CITY": "AUSTIN", "STATE": "TX", "ZIP": "78758", "CAMPUS_ID": "188" }, "geometry": { "type": "Point", "coordinates": [ -97.719939874999966, 30.373261972000023 ] } },
{ "type": "Feature", "properties": { "OBJECTID": 30041, "CLASS": "DISTRICT", "NAME": "SITE 908", "ISD": "AUSTIN ISD", "ADDRESS": "2117 W 49TH STREET", "CITY": "AUSTIN", "STATE": "TX", "ZIP": "78756", "CAMPUS_ID": "908" }, "geometry": { "type": "Point", "coordinates": [ -97.740238778999981, 30.319664985000028 ] } },
{ "type": "Feature", "properties": { "OBJECTID": 30044, "CLASS": "HIGH", "NAME": "RICHARDS SYWL", "ISD": "AUSTIN ISD", "ADDRESS": "2206 PRATHER LANE", "CITY": "AUSTIN", "STATE": "TX", "ZIP": "78704", "CAMPUS_ID": "028" }, "geometry": { "type": "Point", "coordinates": [ -97.788866410999958, 30.236865354000035 ] } },
{ "type": "Feature", "properties": { "OBJECTID": 34611, "CLASS": "ELEM", "NAME": "BEAR CREEK", "ISD": "AUSTIN ISD", "ADDRESS": "12801 ESCARPMENT BLVD", "CITY": "AUSTIN", "STATE": "TX", "ZIP": "78739", "CAMPUS_ID": "195" }, "geometry": { "type": "Point", "coordinates": [ -97.910329661999981, 30.170175377000074 ] } },
{ "type": "Feature", "properties": { "OBJECTID": 35935, "CLASS": "MID", "NAME": "MARSHALL", "ISD": "AUSTIN ISD", "ADDRESS": null, "CITY": "AUSTIN", "STATE": "TX", "ZIP": null, "CAMPUS_ID": "0" }, "geometry": { "type": "Point", "coordinates": [ -97.694404389999988, 30.297154123000045 ] } },
{ "type": "Feature", "properties": { "OBJECTID": 0, "CLASS": "ELEM", "NAME": "BLAZIER K-3", "ISD": "AUSTIN ISD", "ADDRESS": "8601 VERTEX BLVD", "CITY": "AUSTIN", "STATE": "TX", "ZIP": "78744", "CAMPUS_ID": "185" }, "geometry": { "type": "Point", "coordinates": [ -97.751776970219979, 30.156615862131666 ] } },
{ "type": "Feature", "properties": { "OBJECTID": 0, "CLASS": "DISTRICT", "NAME": "AISD CENTRAL", "ISD": "AUSTIN ISD", "ADDRESS": "4000 S IH 35 FRONTAGE ROAD", "CITY": "AUSTIN", "STATE": "TX", "ZIP": "78704", "CAMPUS_ID": "968" }, "geometry": { "type": "Point", "coordinates": [ -97.753493217576803, 30.218597900539859 ] } },
{ "type": "Feature", "properties": { "OBJECTID": 0, "CLASS": "ALT ED 1", "NAME": "CLIFTON", "ISD": "AUSTIN ISD", "ADDRESS": "1519 CORONADO HILLS DRIVE", "CITY": "AUSTIN", "STATE": "TX", "ZIP": "78752", "CAMPUS_ID": "852" }, "geometry": { "type": "Point", "coordinates": [ -97.687337593961246, 30.326336091703794 ] } },
{ "type": "Feature", "properties": { "OBJECTID": 0, "CLASS": "ATHLETIC", "NAME": "BURGER ATHLETIC", "ISD": "AUSTIN ISD", "ADDRESS": "3200 JONES ROAD", "CITY": "AUSTIN", "STATE": "TX", "ZIP": "78745", "CAMPUS_ID": "951" }, "geometry": { "type": "Point", "coordinates": [ -97.809684187128056, 30.230505831757888 ] } },
{ "type": "Feature", "properties": { "OBJECTID": 0, "CLASS": "ATHLETIC", "NAME": "DELCO CENTER", "ISD": "AUSTIN ISD", "ADDRESS": "4601 PECAN BROOK DRIVE", "CITY": "AUSTIN", "STATE": "TX", "ZIP": "78701", "CAMPUS_ID": "949" }, "geometry": { "type": "Point", "coordinates": [ -97.660440060844522, 30.317560125673836 ] } },
{ "type": "Feature", "properties": { "OBJECTID": 0, "CLASS": "ATHLETIC", "NAME": "HOUSE PARK", "ISD": "AUSTIN ISD", "ADDRESS": "1301 SHOAL CREEK BLVD", "CITY": "AUSTIN", "STATE": "TX", "ZIP": "78701", "CAMPUS_ID": "280" }, "geometry": { "type": "Point", "coordinates": [ -97.748945809522269, 30.278223319396258 ] } },
{ "type": "Feature", "properties": { "OBJECTID": 0, "CLASS": "DISTRICT", "NAME": "NELSON BUS", "ISD": "AUSTIN ISD", "ADDRESS": "7105 BERKMAN DRIVE", "CITY": "AUSTIN", "STATE": "TX", "ZIP": "78752", "CAMPUS_ID": "959" }, "geometry": { "type": "Point", "coordinates": [ -97.686149343501285, 30.323753112377059 ] } },
{ "type": "Feature", "properties": { "OBJECTID": 0, "CLASS": "ATHLETIC", "NAME": "NELSON FIELD", "ISD": "AUSTIN ISD", "ADDRESS": "7105 BERKMAN DRIVE", "CITY": "AUSTIN", "STATE": "TX", "ZIP": "78752", "CAMPUS_ID": "281" }, "geometry": { "type": "Point", "coordinates": [ -97.688176644278258, 30.323458059212328 ] } },
{ "type": "Feature", "properties": { "OBJECTID": 0, "CLASS": "ATHLETIC", "NAME": "NOACK SPORTS", "ISD": "AUSTIN ISD", "ADDRESS": "5300 CRAINWAY DRIVE", "CITY": "AUSTIN", "STATE": "TX", "ZIP": "78724", "CAMPUS_ID": "950" }, "geometry": { "type": "Point", "coordinates": [ -97.656226041411841, 30.317737872421535 ] } },
{ "type": "Feature", "properties": { "OBJECTID": 0, "CLASS": "DISTRICT", "NAME": "PAC", "ISD": "AUSTIN ISD", "ADDRESS": "1500 BARBARA JORDAN BLVD", "CITY": "AUSTIN", "STATE": "TX", "ZIP": "78723", "CAMPUS_ID": "954" }, "geometry": { "type": "Point", "coordinates": [ -97.703019502277897, 30.304259396355349 ] } },
{ "type": "Feature", "properties": { "OBJECTID": 0, "CLASS": "DISTRICT", "NAME": "SAEGERT BUS", "ISD": "AUSTIN ISD", "ADDRESS": "3300 JONES ROAD", "CITY": "AUSTIN", "STATE": "TX", "ZIP": "78745", "CAMPUS_ID": "960" }, "geometry": { "type": "Point", "coordinates": [ -97.812516732387763, 30.231387137889001 ] } },
{ "type": "Feature", "properties": { "OBJECTID": 0, "CLASS": "DISTRICT", "NAME": "SERVICE CENTER", "ISD": "AUSTIN ISD", "ADDRESS": "5101 E 51ST STREET", "CITY": "AUSTIN", "STATE": "TX", "ZIP": "78723", "CAMPUS_ID": "962" }, "geometry": { "type": "Point", "coordinates": [ -97.673237294988624, 30.292809255125281 ] } },
{ "type": "Feature", "properties": { "OBJECTID": 0, "CLASS": "DISTRICT", "NAME": "SOUTHEAST BUS", "ISD": "AUSTIN ISD", "ADDRESS": "7200 BLUFF SPRINGS ROAD", "CITY": "AUSTIN", "STATE": "TX", "ZIP": "78744", "CAMPUS_ID": "955" }, "geometry": { "type": "Point", "coordinates": [ -97.770212462414591, 30.180903437357635 ] } },
{ "type": "Feature", "properties": { "OBJECTID": 0, "CLASS": "DISTRICT", "NAME": "CENTRAL WAREHOUSE", "ISD": "AUSTIN ISD", "ADDRESS": "3701 WOODBURY DRIVE", "CITY": "AUSTIN", "STATE": "TX", "ZIP": "78704", "CAMPUS_ID": "922" }, "geometry": { "type": "Point", "coordinates": [ -97.75950305978742, 30.225223900909182 ] } }
]
}
